{"type": "FeatureCollection", "features": [ {"type": "Feature", "properties": {"norad_id": 40115, "name": "WORLDVIEW-3 (WV-3)", "group": "resource", "lat": -7.876052988887667, "lon": -128.25815620436194, "alt_km": 613.2251991015892, "timestamp": "2025-12-06T11:28:10.686324+00:00", "meta": {"OBJECT_NAME": "WORLDVIEW-3 (WV-3)", "OBJECT_ID": "2014-048A", "EPOCH": "2025-12-05T23:18:36.628128", "MEAN_MOTION": 14.85485019, "ECCENTRICITY": 0.0004274, "INCLINATION": 97.8624, "RA_OF_ASC_NODE": 52.3369, "ARG_OF_PERICENTER": 208.3783, "MEAN_ANOMALY": 151.7199, "EPHEMERIS_TYPE": 0, "CLASSIFICATION_TYPE": "U", "NORAD_CAT_ID": 40115, "ELEMENT_SET_NO": 999, "REV_AT_EPOCH": 61323, "BSTAR": 0.00027125308, "MEAN_MOTION_DOT": 2.287e-05, "MEAN_MOTION_DDOT": 0}, "tle": {"line1": "1 40115U 14048A   25339.97125727  .00002287  00000+0  27125-3 0  9998", "line2": "2 40115  97.8624  52.3369 0004274 208.3783 151.7199 14.85485019613238"}}, "geometry": {"type": "Point", "coordinates": [-128.25815620436194, -7.876052988887667]}}, {"type": "Feature", "properties": {"norad_id": 40118, "name": "GAOFEN-2", "group": "resource", "lat": 63.37690713956641, "lon": -123.98726193963667, "alt_km": 615.6419748717517, "timestamp": "2025-12-06T11:28:10.686334+00:00", "meta": {"OBJECT_NAME": "GAOFEN-2", "OBJECT_ID": "2014-049A", "EPOCH": "2025-12-05T21:58:28.926912", "MEAN_MOTION": 14.80589134, "ECCENTRICITY": 0.00083476, "INCLINATION": 98.0395, "RA_OF_ASC_NODE": 39.072, "ARG_OF_PERICENTER": 132.612, "MEAN_ANOMALY": 227.5797, "EPHEMERIS_TYPE": 0, "CLASSIFICATION_TYPE": "U", "NORAD_CAT_ID": 40118, "ELEMENT_SET_NO": 999, "REV_AT_EPOCH": 61063, "BSTAR": 0.00019087749, "MEAN_MOTION_DOT": 1.411e-05, "MEAN_MOTION_DDOT": 0}, "tle": {"line1": "1 40118U 14049A   25339.91561258  .00001411  00000+0  19088-3 0  9996", "line2": "2 40118  98.0395  39.0720 0008347 132.6120 227.5797 14.80589134610636"}}, "geometry": {"type": "Point", "coordinates": [-123.98726193963667, 63.37690713956641]}}, {"type": "Feature", "properties": {"norad_id": 40143, "name": "YAOGAN-21", "group": "resource", "lat": -11.098087239167578, "lon": -157.3528586357803, "alt_km": 504.05102131367676, "timestamp": "2025-12-06T11:28:10.686344+00:00", "meta": {"OBJECT_NAME": "YAOGAN-21", "OBJECT_ID": "2014-053A", "EPOCH": "2025-12-05T22:01:27.259104", "MEAN_MOTION": 15.23552505, "ECCENTRICITY": 0.00101777, "INCLINATION": 97.1763, "RA_OF_ASC_NODE": 23.5275, "ARG_OF_PERICENTER": 62.6783, "MEAN_ANOMALY": 297.549, "EPHEMERIS_TYPE": 0, "CLASSIFICATION_TYPE": "U", "NORAD_CAT_ID": 40143, "ELEMENT_SET_NO": 999, "REV_AT_EPOCH": 62550, "BSTAR": 0.0004395751, "MEAN_MOTION_DOT": 0.0001046, "MEAN_MOTION_DDOT": 0}, "tle": {"line1": "1 40143U 14053A   25339.91767661  .00010460  00000+0  43958-3 0  9992", "line2": "2 40143  97.1763  23.5275 0010177  62.6783 297.5490 15.23552505625506"}}, "geometry": {"type": "Point", "coordinates": [-157.3528586357803, -11.098087239167578]}}, {"type": "Feature", "properties": {"norad_id": 40275, "name": "YAOGAN-22", "group": "resource", "lat": 28.418424288702063, "lon": 117.91334910611464, "alt_km": 1202.9579067513932, "timestamp": "2025-12-06T11:28:10.686355+00:00", "meta": {"OBJECT_NAME": "YAOGAN-22", "OBJECT_ID": "2014-063A", "EPOCH": "2025-12-05T22:32:45.985632", "MEAN_MOTION": 13.15522531, "ECCENTRICITY": 0.00059057, "INCLINATION": 100.7419, "RA_OF_ASC_NODE": 123.263, "ARG_OF_PERICENTER": 264.693, "MEAN_ANOMALY": 95.3507, "EPHEMERIS_TYPE": 0, "CLASSIFICATION_TYPE": "U", "NORAD_CAT_ID": 40275, "ELEMENT_SET_NO": 999, "REV_AT_EPOCH": 53440, "BSTAR": 5.7882741e-05, "MEAN_MOTION_DOT": -2.5e-07, "MEAN_MOTION_DDOT": 0}, "tle": {"line1": "1 40275U 14063A   25339.93942113 -.00000025  00000+0  57883-4 0  9998", "line2": "2 40275 100.7419 123.2630 0005905 264.6930  95.3507 13.15522531534401"}}, "geometry": {"type": "Point", "coordinates": [117.91334910611464, 28.418424288702063]}}, {"type": "Feature", "properties": {"norad_id": 40298, "name": "ASNARO", "group": "resource", "lat": -26.05151977194851, "lon": 60.205006835077334, "alt_km": 517.2494472678063, "timestamp": "2025-12-06T11:28:10.686365+00:00", "meta": {"OBJECT_NAME": "ASNARO", "OBJECT_ID": "2014-070A", "EPOCH": "2025-12-05T21:21:31.989312", "MEAN_MOTION": 15.19276493, "ECCENTRICITY": 0.00052748, "INCLINATION": 97.3666, "RA_OF_ASC_NODE": 56.0055, "ARG_OF_PERICENTER": 141.5083, "MEAN_ANOMALY": 218.6529, "EPHEMERIS_TYPE": 0, "CLASSIFICATION_TYPE": "U", "NORAD_CAT_ID": 40298, "ELEMENT_SET_NO": 999, "REV_AT_EPOCH": 61465, "BSTAR": 0.00077389265, "MEAN_MOTION_DOT": 0.00016285, "MEAN_MOTION_DDOT": 0}, "tle": {"line1": "1 40298U 14070A   25339.88995358  .00016285  00000+0  77389-3 0  9990", "line2": "2 40298  97.3666  56.0055 0005274 141.5083 218.6529 15.19276493614655"}}, "geometry": {"type": "Point", "coordinates": [60.205006835077334, -26.05151977194851]}}, {"type": "Feature", "properties": {"norad_id": 40310, "name": "YAOGAN-24", "group": "resource", "lat": -18.933651077026852, "lon": -71.2699674372355, "alt_km": 639.0230669608736, "timestamp": "2025-12-06T11:28:10.686375+00:00", "meta": {"OBJECT_NAME": "YAOGAN-24", "OBJECT_ID": "2014-072A", "EPOCH": "2025-12-05T23:11:01.761504", "MEAN_MOTION": 14.7615465, "ECCENTRICITY": 0.00144208, "INCLINATION": 98.1223, "RA_OF_ASC_NODE": 111.0236, "ARG_OF_PERICENTER": 158.9604, "MEAN_ANOMALY": 201.2201, "EPHEMERIS_TYPE": 0, "CLASSIFICATION_TYPE": "U", "NORAD_CAT_ID": 40310, "ELEMENT_SET_NO": 999, "REV_AT_EPOCH": 59521, "BSTAR": 0.00029419217, "MEAN_MOTION_DOT": 1.983e-05, "MEAN_MOTION_DDOT": 0}, "tle": {"line1": "1 40310U 14072A   25339.96599261  .00001983  00000+0  29419-3 0  9999", "line2": "2 40310  98.1223 111.0236 0014420 158.9604 201.2201 14.76154650595212"}}, "geometry": {"type": "Point", "coordinates": [-71.2699674372355, -18.933651077026852]}}, {"type": "Feature", "properties": {"norad_id": 40336, "name": "CBERS 4", "group": "resource", "lat": 44.87462151193386, "lon": -132.90131222740834, "alt_km": 768.463159889603, "timestamp": "2025-12-06T11:28:10.686385+00:00", "meta": {"OBJECT_NAME": "CBERS 4", "OBJECT_ID": "2014-079A", "EPOCH": "2025-12-05T23:08:08.472480", "MEAN_MOTION": 14.35513775, "ECCENTRICITY": 0.00014914, "INCLINATION": 98.332, "RA_OF_ASC_NODE": 38.2124, "ARG_OF_PERICENTER": 121.8112, "MEAN_ANOMALY": 238.3219, "EPHEMERIS_TYPE": 0, "CLASSIFICATION_TYPE": "U", "NORAD_CAT_ID": 40336, "ELEMENT_SET_NO": 999, "REV_AT_EPOCH": 57623, "BSTAR": 0.0001246293, "MEAN_MOTION_DOT": 3.16e-06, "MEAN_MOTION_DDOT": 0}, "tle": {"line1": "1 40336U 14079A   25339.96398695  .00000316  00000+0  12463-3 0  9992", "line2": "2 40336  98.3320  38.2124 0001491 121.8112 238.3219 14.35513775576236"}}, "geometry": {"type": "Point", "coordinates": [-132.90131222740834, 44.87462151193386]}}, {"type": "Feature", "properties": {"norad_id": 40362, "name": "YAOGAN-26", "group": "resource", "lat": -80.33618301845347, "lon": 28.112609879226053, "alt_km": 459.6061603203025, "timestamp": "2025-12-06T11:28:10.686396+00:00", "meta": {"OBJECT_NAME": "YAOGAN-26", "OBJECT_ID": "2014-088A", "EPOCH": "2025-12-05T23:20:50.724384", "MEAN_MOTION": 15.38942152, "ECCENTRICITY": 0.00070324, "INCLINATION": 97.0637, "RA_OF_ASC_NODE": 340.8896, "ARG_OF_PERICENTER": 48.3251, "MEAN_ANOMALY": 311.8596, "EPHEMERIS_TYPE": 0, "CLASSIFICATION_TYPE": "U", "NORAD_CAT_ID": 40362, "ELEMENT_SET_NO": 999, "REV_AT_EPOCH": 60790, "BSTAR": 0.00069412502, "MEAN_MOTION_DOT": 0.00026754, "MEAN_MOTION_DDOT": 0}, "tle": {"line1": "1 40362U 14088A   25339.97280931  .00026754  00000+0  69413-3 0  9996", "line2": "2 40362  97.0637 340.8896 0007032  48.3251 311.8596 15.38942152607907"}}, "geometry": {"type": "Point", "coordinates": [28.112609879226053, -80.33618301845347]}}, {"type": "Feature", "properties": {"norad_id": 40376, "name": "SMAP", "group": "resource", "lat": 69.35747752675263, "lon": -37.00502584787783, "alt_km": 674.8762939817098, "timestamp": "2025-12-06T11:28:10.686406+00:00", "meta": {"OBJECT_NAME": "SMAP", "OBJECT_ID": "2015-003A", "EPOCH": "2025-12-05T23:39:32.703552", "MEAN_MOTION": 14.63331549, "ECCENTRICITY": 0.00012057, "INCLINATION": 98.129, "RA_OF_ASC_NODE": 344.8071, "ARG_OF_PERICENTER": 87.7814, "MEAN_ANOMALY": 272.3526, "EPHEMERIS_TYPE": 0, "CLASSIFICATION_TYPE": "U", "NORAD_CAT_ID": 40376, "ELEMENT_SET_NO": 999, "REV_AT_EPOCH": 57936, "BSTAR": 0.00021445672, "MEAN_MOTION_DOT": 1.06e-05, "MEAN_MOTION_DDOT": 0}, "tle": {"line1": "1 40376U 15003A   25339.98579518  .00001060  00000+0  21446-3 0  9999", "line2": "2 40376  98.1290 344.8071 0001205  87.7814 272.3526 14.63331549579367"}}, "geometry": {"type": "Point", "coordinates": [-37.00502584787783, 69.35747752675263]}}, {"type": "Feature", "properties": {"norad_id": 40536, "name": "KOMPSAT-3A", "group": "resource", "lat": 66.36371779588973, "lon": 152.43498846275057, "alt_km": 426.51544533193373, "timestamp": "2025-12-06T11:28:10.686416+00:00", "meta": {"OBJECT_NAME": "KOMPSAT-3A", "OBJECT_ID": "2015-014A", "EPOCH": "2025-12-05T22:32:16.720224", "MEAN_MOTION": 15.43579747, "ECCENTRICITY": 0.00041314, "INCLINATION": 97.678, "RA_OF_ASC_NODE": 313.912, "ARG_OF_PERICENTER": 141.4691, "MEAN_ANOMALY": 218.6851, "EPHEMERIS_TYPE": 0, "CLASSIFICATION_TYPE": "U", "NORAD_CAT_ID": 40536, "ELEMENT_SET_NO": 999, "REV_AT_EPOCH": 59190, "BSTAR": 0.00060196697, "MEAN_MOTION_DOT": 0.00027024, "MEAN_MOTION_DDOT": 0}, "tle": {"line1": "1 40536U 15014A   25339.93908241  .00027024  00000+0  60197-3 0  9997", "line2": "2 40536  97.6780 313.9120 0004131 141.4691 218.6851 15.43579747591908"}}, "geometry": {"type": "Point", "coordinates": [152.43498846275057, 66.36371779588973]}}]}